start=new Date('2023-04-28T00:00:00.000Z').valueOf();
sats=[{"MEAN_ELEMENT_THEORY":"SGP4","EPHEMERIS_TYPE":"0","BSTAR":"0.00044521000000","ELEMENT_SET_NO":"999","ECCENTRICITY":"0.00011910","NORAD_CAT_ID":"53405","OBJECT_NAME":"STARLINK-4510","MEAN_MOTION_DOT":"0.00006804","FILE":"3895031","COUNTRY_CODE":"US","OBJECT_ID":"2022-097T","TLE_LINE1":"1 53405U 22097T   23117.47159342  .00006804  00000-0  44521-3 0  9993","TLE_LINE2":"2 53405  53.2142 145.2632 0001191 103.6372 256.4753 15.08838198 39930","REF_FRAME":"TEME","MEAN_MOTION":"15.08838198","CENTER_NAME":"EARTH","EPOCH":"2023-04-27T11:19:05.671488","PERIOD":"95.438","ARG_OF_PERICENTER":"103.6372","APOAPSIS":"540.575","LAUNCH_DATE":"2022-08-10","OBJECT_TYPE":"PAYLOAD","MEAN_ANOMALY":"256.4753","REV_AT_EPOCH":"3993","TIME_SYSTEM":"UTC","INCLINATION":"53.2142","CLASSIFICATION_TYPE":"U","SITE":"AFETR","RA_OF_ASC_NODE":"145.2632","SEMIMAJOR_AXIS":"6917.886","RCS_SIZE":"LARGE","PERIAPSIS":"538.927","MEAN_MOTION_DDOT":"0.0000000000000","DECAY_DATE":null,"GP_ID":"230847197"},{"LAUNCH_DATE":"2022-08-10","OBJECT_TYPE":"PAYLOAD","REV_AT_EPOCH":"4055","MEAN_ANOMALY":"262.0173","TIME_SYSTEM":"UTC","INCLINATION":"53.2162","CLASSIFICATION_TYPE":"U","SITE":"AFETR","RA_OF_ASC_NODE":"135.3738","SEMIMAJOR_AXIS":"6917.883","RCS_SIZE":"LARGE","PERIAPSIS":"538.858","MEAN_MOTION_DDOT":"0.0000000000000","DECAY_DATE":null,"GP_ID":"230837619","MEAN_ELEMENT_THEORY":"SGP4","EPHEMERIS_TYPE":"0","BSTAR":"0.00018314000000","ELEMENT_SET_NO":"999","NORAD_CAT_ID":"53406","ECCENTRICITY":"0.00012860","OBJECT_NAME":"STARLINK-4533","MEAN_MOTION_DOT":"0.00002628","FILE":"3894751","COUNTRY_CODE":"US","OBJECT_ID":"2022-097U","TLE_LINE1":"1 53406U 22097U   23117.44673593  .00002628  00000-0  18314-3 0  9991","TLE_LINE2":"2 53406  53.2162 135.3738 0001286  98.0965 262.0173 15.08839110 40554","REF_FRAME":"TEME","MEAN_MOTION":"15.08839110","CENTER_NAME":"EARTH","PERIOD":"95.438","EPOCH":"2023-04-27T10:43:17.984352","ARG_OF_PERICENTER":"98.0965","APOAPSIS":"540.638"},{"SEMIMAJOR_AXIS":"6917.868","RA_OF_ASC_NODE":"125.5716","DECAY_DATE":null,"GP_ID":"230847201","RCS_SIZE":"LARGE","PERIAPSIS":"538.900","MEAN_MOTION_DDOT":"0.0000000000000","OBJECT_TYPE":"PAYLOAD","MEAN_ANOMALY":"265.9562","REV_AT_EPOCH":"4020","LAUNCH_DATE":"2022-08-10","CLASSIFICATION_TYPE":"U","SITE":"AFETR","INCLINATION":"53.2150","TIME_SYSTEM":"UTC","TLE_LINE1":"1 53407U 22097V   23117.45504465  .00004260  00000-0  28557-3 0  9998","TLE_LINE2":"2 53407  53.2150 125.5716 0001204  94.1568 265.9562 15.08844032 40200","REF_FRAME":"TEME","OBJECT_ID":"2022-097V","PERIOD":"95.437","EPOCH":"2023-04-27T10:55:15.857760","ARG_OF_PERICENTER":"94.1568","APOAPSIS":"540.566","MEAN_MOTION":"15.08844032","CENTER_NAME":"EARTH","EPHEMERIS_TYPE":"0","ELEMENT_SET_NO":"999","BSTAR":"0.00028557000000","NORAD_CAT_ID":"53407","ECCENTRICITY":"0.00012040","MEAN_ELEMENT_THEORY":"SGP4","MEAN_MOTION_DOT":"0.00004260","FILE":"3895031","COUNTRY_CODE":"US","OBJECT_NAME":"STARLINK-4537"},{"RCS_SIZE":"LARGE","PERIAPSIS":"538.752","MEAN_MOTION_DDOT":"0.0000000000000","DECAY_DATE":null,"GP_ID":"230838618","RA_OF_ASC_NODE":"135.0297","SEMIMAJOR_AXIS":"6917.845","TIME_SYSTEM":"UTC","INCLINATION":"53.2160","CLASSIFICATION_TYPE":"U","SITE":"AFETR","LAUNCH_DATE":"2022-08-10","OBJECT_TYPE":"PAYLOAD","REV_AT_EPOCH":"4056","MEAN_ANOMALY":"304.8590","MEAN_MOTION":"15.08851595","CENTER_NAME":"EARTH","EPOCH":"2023-04-27T12:34:35.742720","PERIOD":"95.437","ARG_OF_PERICENTER":"55.2533","APOAPSIS":"540.668","OBJECT_ID":"2022-097W","TLE_LINE1":"1 53408U 22097W   23117.52402480  .00009566  00000-0  61810-3 0  9994","TLE_LINE2":"2 53408  53.2160 135.0297 0001385  55.2533 304.8590 15.08851595 40567","REF_FRAME":"TEME","OBJECT_NAME":"STARLINK-4491","MEAN_MOTION_DOT":"0.00009566","FILE":"3894751","COUNTRY_CODE":"US","MEAN_ELEMENT_THEORY":"SGP4","EPHEMERIS_TYPE":"0","BSTAR":"0.00061810000000","ELEMENT_SET_NO":"999","ECCENTRICITY":"0.00013850","NORAD_CAT_ID":"53408"},{"OBJECT_ID":"2022-097X","TLE_LINE2":"2 53409  53.2166 125.2526 0001221  99.0933 261.0198 15.08837791 40211","REF_FRAME":"TEME","TLE_LINE1":"1 53409U 22097X   23117.51759402  .00001880  00000-0  13617-3 0  9996","CENTER_NAME":"EARTH","MEAN_MOTION":"15.08837791","APOAPSIS":"540.597","ARG_OF_PERICENTER":"99.0933","PERIOD":"95.438","EPOCH":"2023-04-27T12:25:20.123328","MEAN_ELEMENT_THEORY":"SGP4","BSTAR":"0.00013617000000","ELEMENT_SET_NO":"999","NORAD_CAT_ID":"53409","ECCENTRICITY":"0.00012210","EPHEMERIS_TYPE":"0","OBJECT_NAME":"STARLINK-4490","COUNTRY_CODE":"US","MEAN_MOTION_DOT":"0.00001880","FILE":"3895031","RA_OF_ASC_NODE":"125.2526","SEMIMAJOR_AXIS":"6917.887","MEAN_MOTION_DDOT":"0.0000000000000","RCS_SIZE":"LARGE","PERIAPSIS":"538.907","DECAY_DATE":null,"GP_ID":"230847198","LAUNCH_DATE":"2022-08-10","REV_AT_EPOCH":"4021","MEAN_ANOMALY":"261.0198","OBJECT_TYPE":"PAYLOAD","TIME_SYSTEM":"UTC","INCLINATION":"53.2166","CLASSIFICATION_TYPE":"U","SITE":"AFETR"},{"OBJECT_NAME":"STARLINK-4492","COUNTRY_CODE":"US","MEAN_MOTION_DOT":"0.00009589","FILE":"3895031","MEAN_ELEMENT_THEORY":"SGP4","ELEMENT_SET_NO":"999","BSTAR":"0.00061951000000","NORAD_CAT_ID":"53410","ECCENTRICITY":"0.00012610","EPHEMERIS_TYPE":"0","CENTER_NAME":"EARTH","MEAN_MOTION":"15.08853332","APOAPSIS":"540.577","PERIOD":"95.437","ARG_OF_PERICENTER":"106.6308","EPOCH":"2023-04-27T12:29:17.438208","OBJECT_ID":"2022-097Y","TLE_LINE2":"2 53410  53.2151 135.0445 0001261 106.6308 253.4823 15.08853332 40074","REF_FRAME":"TEME","TLE_LINE1":"1 53410U 22097Y   23117.52034072  .00009589  00000-0  61951-3 0  9996","INCLINATION":"53.2151","TIME_SYSTEM":"UTC","CLASSIFICATION_TYPE":"U","SITE":"AFETR","LAUNCH_DATE":"2022-08-10","REV_AT_EPOCH":"4007","MEAN_ANOMALY":"253.4823","OBJECT_TYPE":"PAYLOAD","MEAN_MOTION_DDOT":"0.0000000000000","RCS_SIZE":"LARGE","PERIAPSIS":"538.832","DECAY_DATE":null,"GP_ID":"230847195","RA_OF_ASC_NODE":"135.0445","SEMIMAJOR_AXIS":"6917.840"},{"LAUNCH_DATE":"2022-08-10","OBJECT_TYPE":"PAYLOAD","MEAN_ANOMALY":"286.0457","REV_AT_EPOCH":"4056","INCLINATION":"53.2156","TIME_SYSTEM":"UTC","SITE":"AFETR","CLASSIFICATION_TYPE":"U","RA_OF_ASC_NODE":"135.0134","SEMIMAJOR_AXIS":"6917.844","PERIAPSIS":"538.741","RCS_SIZE":"LARGE","MEAN_MOTION_DDOT":"0.0000000000000","GP_ID":"230838370","DECAY_DATE":null,"MEAN_ELEMENT_THEORY":"SGP4","EPHEMERIS_TYPE":"0","ECCENTRICITY":"0.00013990","NORAD_CAT_ID":"53411","BSTAR":"0.00059483000000","ELEMENT_SET_NO":"999","OBJECT_NAME":"STARLINK-4497","FILE":"3894751","MEAN_MOTION_DOT":"0.00009195","COUNTRY_CODE":"US","OBJECT_ID":"2022-097Z","TLE_LINE1":"1 53411U 22097Z   23117.52770410  .00009195  00000-0  59483-3 0  9990","REF_FRAME":"TEME","TLE_LINE2":"2 53411  53.2156 135.0134 0001399  74.0689 286.0457 15.08852009 40566","MEAN_MOTION":"15.08852009","CENTER_NAME":"EARTH","PERIOD":"95.437","EPOCH":"2023-04-27T12:39:53.634240","ARG_OF_PERICENTER":"74.0689","APOAPSIS":"540.676"},{"TIME_SYSTEM":"UTC","INCLINATION":"53.2151","CLASSIFICATION_TYPE":"U","SITE":"AFETR","LAUNCH_DATE":"2022-08-10","REV_AT_EPOCH":"4053","MEAN_ANOMALY":"295.2158","OBJECT_TYPE":"PAYLOAD","MEAN_MOTION_DDOT":"0.0000000000000","RCS_SIZE":"LARGE","PERIAPSIS":"538.926","DECAY_DATE":null,"GP_ID":"230838119","RA_OF_ASC_NODE":"135.9859","SEMIMAJOR_AXIS":"6917.889","OBJECT_NAME":"STARLINK-4496","COUNTRY_CODE":"US","MEAN_MOTION_DOT":"0.00009255","FILE":"3894751","MEAN_ELEMENT_THEORY":"SGP4","ELEMENT_SET_NO":"999","BSTAR":"0.00059883000000","ECCENTRICITY":"0.00011970","NORAD_CAT_ID":"53412","EPHEMERIS_TYPE":"0","CENTER_NAME":"EARTH","MEAN_MOTION":"15.08837308","APOAPSIS":"540.582","PERIOD":"95.438","ARG_OF_PERICENTER":"64.8958","EPOCH":"2023-04-27T07:27:15.586848","OBJECT_ID":"2022-097AA","TLE_LINE2":"2 53412  53.2151 135.9859 0001197  64.8958 295.2158 15.08837308 40539","REF_FRAME":"TEME","TLE_LINE1":"1 53412U 22097AA  23117.31059707  .00009255  00000-0  59883-3 0  9998"},{"FILE":"3895035","MEAN_MOTION_DOT":"0.00002782","COUNTRY_CODE":"US","OBJECT_NAME":"STARLINK-4500","EPHEMERIS_TYPE":"0","ECCENTRICITY":"0.00012880","NORAD_CAT_ID":"53413","BSTAR":"0.00019278000000","ELEMENT_SET_NO":"999","MEAN_ELEMENT_THEORY":"SGP4","EPOCH":"2023-04-27T12:23:58.614432","PERIOD":"95.437","ARG_OF_PERICENTER":"73.9656","APOAPSIS":"540.629","MEAN_MOTION":"15.08842384","CENTER_NAME":"EARTH","TLE_LINE1":"1 53413U 22097AB  23117.51665063  .00002782  00000-0  19278-3 0  9991","REF_FRAME":"TEME","TLE_LINE2":"2 53413  53.2154 135.0593 0001288  73.9656 286.1477 15.08842384 40078","OBJECT_ID":"2022-097AB","SITE":"AFETR","CLASSIFICATION_TYPE":"U","INCLINATION":"53.2154","TIME_SYSTEM":"UTC","OBJECT_TYPE":"PAYLOAD","MEAN_ANOMALY":"286.1477","REV_AT_EPOCH":"4007","LAUNCH_DATE":"2022-08-10","GP_ID":"230847775","DECAY_DATE":null,"PERIAPSIS":"538.847","RCS_SIZE":"LARGE","MEAN_MOTION_DDOT":"0.0000000000000","SEMIMAJOR_AXIS":"6917.873","RA_OF_ASC_NODE":"135.0593"},{"LAUNCH_DATE":"2022-08-10","OBJECT_TYPE":"PAYLOAD","REV_AT_EPOCH":"4008","MEAN_ANOMALY":"345.9892","INCLINATION":"53.2181","TIME_SYSTEM":"UTC","CLASSIFICATION_TYPE":"U","SITE":"AFETR","RA_OF_ASC_NODE":"134.8251","SEMIMAJOR_AXIS":"6917.895","RCS_SIZE":"LARGE","PERIAPSIS":"536.805","MEAN_MOTION_DDOT":"0.0000000000000","DECAY_DATE":null,"GP_ID":"230847578","MEAN_ELEMENT_THEORY":"SGP4","EPHEMERIS_TYPE":"0","ELEMENT_SET_NO":"999","BSTAR":"0.00011830000000","ECCENTRICITY":"0.00042720","NORAD_CAT_ID":"53414","OBJECT_NAME":"STARLINK-4304","MEAN_MOTION_DOT":"0.00001594","FILE":"3895043","COUNTRY_CODE":"US","OBJECT_ID":"2022-097AC","TLE_LINE1":"1 53414U 22097AC  23117.57185541  .00001594  00000-0  11830-3 0  9992","TLE_LINE2":"2 53414  53.2181 134.8251 0004272  14.1219 345.9892 15.08835158 40082","REF_FRAME":"TEME","MEAN_MOTION":"15.08835158","CENTER_NAME":"EARTH","ARG_OF_PERICENTER":"14.1219","PERIOD":"95.438","EPOCH":"2023-04-27T13:43:28.307424","APOAPSIS":"542.716"}];
